[{"OBJECT_NAME":"ION SCV-011","OBJECT_ID":"2023-084AB","EPOCH":"2026-03-09T22:35:16.566144","MEAN_MOTION":15.27752464,"ECCENTRICITY":0.00079323,"INCLINATION":98.1356,"RA_OF_ASC_NODE":247.1056,"ARG_OF_PERICENTER":30.3898,"MEAN_ANOMALY":329.7798,"EPHEMERIS_TYPE":0,"CLASSIFICATION_TYPE":"U","NORAD_CAT_ID":56957,"ELEMENT_SET_NO":999,"REV_AT_EPOCH":15065,"BSTAR":0.0002590454,"MEAN_MOTION_DOT":6.943e-5,"MEAN_MOTION_DDOT":0},{"OBJECT_NAME":"STARLINK-32546","OBJECT_ID":"2024-222W","EPOCH":"2026-03-09T12:54:43.764192","MEAN_MOTION":15.27587305,"ECCENTRICITY":0.00014891,"INCLINATION":42.9997,"RA_OF_ASC_NODE":133.7635,"ARG_OF_PERICENTER":270.8026,"MEAN_ANOMALY":89.2655,"EPHEMERIS_TYPE":0,"CLASSIFICATION_TYPE":"U","NORAD_CAT_ID":62134,"ELEMENT_SET_NO":999,"REV_AT_EPOCH":7265,"BSTAR":0.00084572994,"MEAN_MOTION_DOT":0.00023089,"MEAN_MOTION_DDOT":0}]
